{
  "norad_id": 56298,
  "name": "STARLINK-30109",
  "history": [
    {
      "epoch": "2026-03-28T17:31:29.034624Z",
      "apogee_km": 483.3356104748573,
      "perigee_km": 482.7249665861773,
      "latitude_deg": 9.030102815498265e-06,
      "longitude_deg": 12.150981007537856,
      "height_km": 482.98121730446763,
      "semi_major_axis_km": 6861.167288530517,
      "eccentricity": 4.45e-05,
      "inclination_deg": 42.9995,
      "raan_deg": 101.1684,
      "arg_perigee_deg": 234.9737,
      "mean_anomaly_deg": 125.1073,
      "mean_motion_rev_day": 15.27586281
    },
    {
      "epoch": "2026-03-29T01:22:16.833792Z",
      "apogee_km": 483.20867854921926,
      "perigee_km": 482.92599693050397,
      "latitude_deg": 1.0155755089539342e-05,
      "longitude_deg": -107.71532992624779,
      "height_km": 482.81893297260086,
      "semi_major_axis_km": 6861.204337739861,
      "eccentricity": 2.06e-05,
      "inclination_deg": 42.9992,
      "raan_deg": 99.3235,
      "arg_perigee_deg": 80.4226,
      "mean_anomaly_deg": 279.6649,
      "mean_motion_rev_day": 15.27573908
    },
    {
      "epoch": "2026-03-30T00:54:37.499328Z",
      "apogee_km": 483.37937440298083,
      "perigee_km": 482.7056065770139,
      "latitude_deg": 2.4811476178992792e-05,
      "longitude_deg": -107.30553558642046,
      "height_km": 482.9837222921506,
      "semi_major_axis_km": 6861.179490489997,
      "eccentricity": 4.91e-05,
      "inclination_deg": 43.004,
      "raan_deg": 93.7861,
      "arg_perigee_deg": 240.6775,
      "mean_anomaly_deg": 119.4028,
      "mean_motion_rev_day": 15.27582206
    }
  ]
}